{
  "norad_id": 52858,
  "name": "STARLINK-4198",
  "history": [
    {
      "epoch": "2026-03-28T20:03:09.930240",
      "apogee_km": 540.9439876026418,
      "perigee_km": 538.5555180223664,
      "latitude_deg": -45.769164487097854,
      "longitude_deg": -93.98896640003659,
      "semi_major_axis_km": 6917.886752812504,
      "eccentricity": 0.00017263,
      "inclination_deg": 53.2172,
      "raan_deg": 298.1993,
      "arg_perigee_deg": 89.0765,
      "mean_anomaly_deg": 271.0425,
      "mean_motion_rev_day": 15.08837918
    },
    {
      "epoch": "2026-03-28T21:38:33.009216",
      "apogee_km": 540.9280462713159,
      "perigee_km": 538.5621305970717,
      "latitude_deg": 1.3022224718718702,
      "longitude_deg": -87.6299897597637,
      "semi_major_axis_km": 6917.882088434194,
      "eccentricity": 0.000171,
      "inclination_deg": 53.2172,
      "raan_deg": 297.9017,
      "arg_perigee_deg": 88.4391,
      "mean_anomaly_deg": 271.6797,
      "mean_motion_rev_day": 15.08839444
    }
  ]
}